{"spkid": "50550162", "covariance": {"epoch": "2457186.5", "elements": [{"sigma": 2.61735770571022e-07, "name": "e", "value": ".1982104000407714", "title": "eccentricity", "units": null, "label": "e"}, {"label": "q", "units": "au", "value": ".6905255273011052", "title": "perihelion distance", "sigma": 2.05639857668525e-07, "name": "q"}, {"label": "tp", "sigma": 0.000534139547268608, "name": "tp", "units": "TDB", "value": "2457120.178801169297", "title": "time of perihelion passage"}, {"label": "node", "value": "27.50326504542244", "title": "longitude of the ascending node", "units": "deg", "sigma": 0.000602801739270594, "name": "om"}, {"label": "peri", "name": "w", "sigma": 0.000314535107902282, "value": "200.2759757766941", "title": "argument of perihelion", "units": "deg"}, {"name": "i", "sigma": 1.22248968106016e-05, "title": "inclination", "value": ".3869479917424448", "units": "deg", "label": "i"}], "data": [["6.850561359640674E-14", "-5.324464452142095E-14", "-7.882526530717246E-11", "-7.612204511291151E-11", "7.637244190322759E-12", "-1.269135410963238E-12", "-5.325014776409431E-21"], ["-5.324464452142095E-14", "4.22877510619313E-14", "4.800438048759635E-11", "4.639958472250114E-11", "-5.009554521014922E-12", "6.759434718059138E-13", "5.688544346607503E-21"], ["-7.882526530717246E-11", "4.800438048759635E-11", "2.853050559563134E-7", "2.75661487283407E-7", "-2.307238834519682E-8", "6.026537828278723E-9", "-1.656779516419677E-17"], ["-7.612204511291151E-11", "4.639958472250114E-11", "2.75661487283407E-7", "3.63369936867653E-7", "-1.193073803839498E-7", "6.968744901963829E-9", "-1.576247397973323E-17"], ["7.637244190322759E-12", "-5.009554521014922E-12", "-2.307238834519682E-8", "-1.193073803839498E-7", "9.893233410310033E-8", "-1.621812599367853E-9", "8.433581978342244E-19"], ["-1.269135410963238E-12", "6.759434718059138E-13", "6.026537828278723E-9", "6.968744901963829E-9", "-1.621812599367853E-9", "1.494481020298571E-10", "-4.301359339511031E-19"], ["-5.325014776409431E-21", "5.688544346607503E-21", "-1.656779516419677E-17", "-1.576247397973323E-17", "8.433581978342244E-19", "-4.301359339511031E-19", "3.091528594215829E-27"]], "labels": ["e", "q", "tp", "node", "peri", "i", "A2"]}, "elements": [{"units": null, "title": "eccentricity", "value": ".1974095127759172", "sigma": "2.3942E-7", "name": "e", "label": "e"}, {"value": ".8610610961070271", "title": "semi-major axis", "units": "au", "name": "a", "sigma": "7.2057E-8", "label": "a"}, {"sigma": "2.1054E-7", "name": "q", "units": "au", "title": "perihelion distance", "value": ".6910794446542416", "label": "q"}, {"label": "i", "sigma": "1.0848E-5", "name": "i", "title": "inclination; angle with respect to x-y ecliptic plane", "value": ".3457697408633106", "units": "deg"}, {"label": "node", "sigma": ".00070479", "name": "om", "units": "deg", "title": "longitude of the ascending node", "value": "27.49475978085251"}, {"label": "peri", "units": "deg", "value": "199.2362036139898", "title": "argument of perihelion", "sigma": ".00037518", "name": "w"}, {"units": "deg", "title": "mean anomaly", "value": "356.8238504705401", "sigma": ".00049032", "name": "ma", "label": "M"}, {"units": "TDB", "title": "time of perihelion passage", "value": "2461203.074825597091", "name": "tp", "sigma": ".00039719", "label": "tp"}, {"label": "period", "name": "per", "sigma": "3.6634E-5", "value": "291.8430654334555", "title": "sidereal orbital period", "units": "d"}, {"sigma": "1.5484E-7", "name": "n", "title": "mean motion", "value": "1.233539674706046", "units": "deg/d", "label": "n"}, {"label": "Q", "value": "1.031042747559813", "title": "aphelion distance", "units": "au", "name": "ad", "sigma": "8.6282E-8"}], "epoch": "2461200.5"}